{"fetched_at":"2026-04-01T16:59:04Z","count":11445,"tles":[{"name":"STARLINK-37180","line1":"1 68333U 26059N   26090.66668981  .00219272  00000+0  10924-2 0  9992","line2":"2 68333  53.1596 252.6461 0000797  27.5459 232.3653 15.80754721  2573","category":"Starlink"}]}